STARLINK-31631          
1 59459U 24068E   24118.91668981 -.01710971  00000+0 -22709-1 0  9994
2 59459  43.0008 312.9195 0001488 280.0633 220.3705 15.60327962  4028
STARLINK-31620          
1 59460U 24068F   24118.91668981 -.01712786  00000+0 -22738-1 0  9994
2 59460  43.0007 312.9151 0001448 276.4989 225.8896 15.60325932  4059
STARLINK-31482          
1 59461U 24068G   24118.91668981 -.00903257  00000+0 -37283-2 0  9991
2 59461  42.9993 311.3904 0001999 270.4320 121.2689 15.87030339  4046
STARLINK-31511          
1 59462U 24068H   24118.91668981 -.01678920  00000+0 -22260-1 0  9997
2 59462  43.0007 312.8995 0002469 285.8767 222.3925 15.60289924  4020
STARLINK-31364          
1 59463U 24068J   24118.91668981 -.01708652  00000+0 -22686-1 0  9996
2 59463  43.0009 312.9051 0001425 274.6109 231.6920 15.60315665  4024
STARLINK-31597          
1 59464U 24068K   24118.91668981 -.01702859  00000+0 -22609-1 0  9995
2 59464  43.0007 312.8940 0001596 280.9795 229.2366 15.60304062  3990
STARLINK-31621          
1 59465U 24068L   24118.91668981 -.01703249  00000+0 -22617-1 0  9999
2 59465  43.0007 312.8897 0001638 283.0124 229.1585 15.60301126  4024
STARLINK-31462          
1 59466U 24068M   24118.91668981 -.01678449  00000+0 -18764-1 0  9991
2 59466  43.0009 312.3785 0001906 275.7582  81.1840 15.65115734  4047
STARLINK-31592          
1 59467U 24068N   24118.91668981 -.01699744  00000+0 -22575-1 0  9998
2 59467  43.0008 312.8789 0001485 287.3576 228.7269 15.60291260  4059
STARLINK-31267          
1 59468U 24068P   24118.91668981 -.01701960  00000+0 -22611-1 0  9994
2 59468  43.0008 312.8741 0001387 280.6836 237.3574 15.60288520  4021
STARLINK-31381          
1 59469U 24068Q   24118.91668981 -.01696037  00000+0 -22526-1 0  9998
2 59469  43.0008 312.8690 0001771 285.4258 234.5703 15.60281853  4051
STARLINK-31546          
1 59470U 24068R   24118.91668981 -.01707328  00000+0 -22691-1 0  9999
2 59470  43.0008 312.8644 0001651 281.0017 240.9487 15.60285543  4043
STARLINK-31575          
1 59471U 24068S   24118.91668981 -.01705969  00000+0 -22677-1 0  9993
2 59471  43.0007 312.8587 0001402 278.1410 245.7660 15.60280880  4042
STARLINK-31375          
1 59472U 24068T   24118.91668981 -.01702028  00000+0 -22625-1 0  9990
2 59472  43.0008 312.8490 0001618 279.7330 248.0846 15.60271559  4027
STARLINK-31610          
1 59473U 24068U   24118.91668981 -.01696803  00000+0 -22550-1 0  9991
2 59473  43.0007 312.8541 0001379 283.4304 242.4348 15.60271017  4058
STARLINK-31581          
1 59474U 24068V   24118.91668981 -.01697326  00000+0 -22562-1 0  9996
2 59474  43.0007 312.8442 0001569 285.9537 243.8219 15.60264388  4049
STARLINK-31566          
1 59475U 24068W   24118.91668981 -.01695975  00000+0 -22547-1 0  9998
2 59475  43.0008 312.8395 0001461 284.6876 247.0447 15.60259646  4029
STARLINK-31515          
1 59476U 24068X   24118.91668981 -.01701503  00000+0 -22626-1 0  9992
2 59476  43.0008 312.8344 0001735 284.9800 248.7049 15.60260426  4055
STARLINK-31531          
1 59477U 24068Y   24118.91668981 -.01698461  00000+0 -22588-1 0  9998
2 59477  43.0008 312.8294 0001525 283.2233 252.4194 15.60254309  4022
DUMMY SAT 3             
1 59479U 24069A   24118.33235633 -.00000066  00000+0  00000+0 0  9990
2 59479   0.0779  72.7162 0048843 126.1022 161.0119  0.98607834   111
WSF-M                   
1 59481U 24070A   24118.91597176  .00000224  00000+0  12481-3 0  9997
2 59481  98.7200 126.4630 0005799  59.5593 300.6156 14.20465890  2319
MICROORBITER-1          
1 59483U 98067WF  24118.66026454  .00099692  00000+0  14817-2 0  9995
2 59483  51.6357 205.7032 0002486  78.3572 281.7698 15.54360615  2592
STARLINK-31753          
1 59484U 24071A   24118.91668981 -.00763194  00000+0 -55452-2 0  9992
2 59484  43.0004 272.3318 0001799 279.8494 189.6396 15.74563848  3510
STARLINK-31653          
1 59485U 24071B   24118.91668981 -.00777801  00000+0 -56554-2 0  9997
2 59485  43.0003 272.3268 0002008 278.7978 192.6587 15.74585560  3514
STARLINK-31733          
1 59486U 24071C   24118.91668981 -.00777791  00000+0 -56578-2 0  9992
2 59486  43.0002 272.3213 0002074 269.8788 203.5992 15.74574959  3520
STARLINK-31657          
1 59487U 24071D   24118.91668981 -.00674677  00000+0 -48935-2 0  9990
2 59487  43.0001 272.3058 0002000 277.3396 202.3884 15.74360213  3562
STARLINK-31754          
1 59488U 24071E   24118.91668981 -.00733154  00000+0 -53297-2 0  9994
2 59488  43.0002 272.3164 0002154 272.1683 203.4610 15.74466642  3566
STARLINK-31638          
1 59489U 24071F   24118.91668981 -.00672420  00000+0 -48716-2 0  9993
2 59489  43.0002 272.3108 0001829 280.2297 197.4889 15.74381423  3512
STARLINK-31670          
1 59490U 24071G   24118.91668981 -.01570442  00000+0 -13648-1 0  9992
2 59490  43.0001 272.3162 0002109 286.9358 188.1641 15.70984444  3517
STARLINK-31712          
1 59491U 24071H   24118.91668981 -.00654243  00000+0 -47378-2 0  9992
2 59491  43.0002 272.3006 0002300 272.4867 209.2754 15.74338160  3561
STARLINK-31684          
1 59492U 24071J   24118.91668981 -.00501546  00000+0 -35914-2 0  9993
2 59492  43.0002 272.2902 0002035 282.8287 203.0637 15.74182094  3512
STARLINK-31678          
1 59493U 24071K   24118.91668981 -.00386136  00000+0 -27387-2 0  9995
2 59493  43.0002 272.2848 0002066 279.0640 208.8991 15.74084483  3561
STARLINK-31744          
1 59494U 24071L   24118.91668981 -.00309952  00000+0 -21799-2 0  9998
2 59494  43.0000 272.2794 0001897 277.0464 212.9156 15.74067194  3517
STARLINK-31719          
1 59495U 24071M   24118.91668981 -.00274389  00000+0 -19276-2 0  9991
2 59495  43.0000 272.2745 0001861 271.5917 220.4342 15.73992782  3562
STARLINK-31728          
1 59496U 24071N   24118.91668981 -.00142945  00000+0 -99099-3 0  9996
2 59496  42.9999 272.2639 0001729 258.4316 237.6350 15.73905382  3514
STARLINK-31720          
1 59497U 24071P   24118.91668981 -.00260783  00000+0 -18296-2 0  9997
2 59497  42.9999 272.2693 0002245 286.0504 207.9753 15.73982326  3515
STARLINK-31731          
1 59498U 24071Q   24118.91668981 -.00053070  00000+0 -36283-3 0  9994
2 59498  42.9998 272.2589 0002515 274.1788 223.9392 15.73848915  3568
STARLINK-31742          
1 59499U 24071R   24118.91668981  .00060334  00000+0  41513-3 0  9996
2 59499  42.9998 272.2536 0002452 271.4430 228.6997 15.73776034  3515
STARLINK-31512          
1 59500U 24071S   24118.91668981  .00038668  00000+0  26774-3 0  9996
2 59500  42.9997 272.2487 0001631 295.8225 206.3179 15.73791221  3567
STARLINK-31458          
1 59501U 24071T   24118.91668981  .00058495  00000+0  40258-3 0  9990
2 59501  42.9998 272.2432 0002141 279.3246 224.8228 15.73781250  3512
STARLINK-31357          
1 59502U 24071U   24118.91668981  .00078721  00000+0  53957-3 0  9995
2 59502  42.9997 272.2382 0001430 275.8695 230.2816 15.73774109  3569
STARLINK-31508          
1 59503U 24071V   24118.91668981  .00255788  00000+0  17167-2 0  9998
2 59503  43.0000 272.2340 0001846 249.8537 258.3105 15.73674502  3511
STARLINK-31535          
1 59504U 24071W   24118.91668981  .00169923  00000+0  11504-2 0  9993
2 59504  42.9997 272.2286 0001636 266.0153 244.1505 15.73733218  3524
STARLINK-31533          
1 59505U 24071X   24118.91668981  .00079419  00000+0  54414-3 0  9992
2 59505  42.9998 272.2235 0001982 273.7700 238.3837 15.73779313  3515
STARLINK-31524          
1 59506U 24071Y   24118.91668981  .00094454  00000+0  64536-3 0  9995
2 59506  42.9998 272.2185 0002984 272.6315 241.5195 15.73777538  3513
CURTIS                  
1 59507U 98067WG  24118.53348947  .00078633  00000+0  12002-2 0  9998
2 59507  51.6352 206.3565 0001449  95.2299 264.8857 15.53739606  2581
KASHIWA                 
1 59508U 98067WH  24118.65973410  .00110649  00000+0  16302-2 0  9992
2 59508  51.6354 205.6994 0002402  77.3612 282.7647 15.54549891  2607
2024-072A               
1 59510U 24072A   24118.89395062  .00025514  00000+0  10526-2 0  9995
2 59510  97.4854 194.0257 0011881 220.6585 139.3766 15.23971224  1938
STARLINK-31635          
1 59511U 24073A   24118.91668981 -.00765684  00000+0 -38792-2 0  9999
2 59511  43.0038 243.1709 0002018 277.3080  58.8573 15.82482762  2828
STARLINK-31650          
1 59512U 24073B   24118.91668981 -.00768114  00000+0 -38868-2 0  9995
2 59512  43.0039 243.1662 0002201 277.7684  60.1020 15.82512548  2814
STARLINK-31658          
1 59513U 24073C   24118.91668981  .00497059  00000+0  15872-2 0  9991
2 59513  43.0034 243.0888 0004687 317.1203  51.5774 15.89051857  2723
STARLINK-31664          
1 59514U 24073D   24118.91668981 -.00785750  00000+0 -39756-2 0  9999
2 59514  43.0035 243.1542 0002187 279.7942  62.9071 15.82558261  2718
STARLINK-31669          
1 59515U 24073E   24118.91668981 -.00786034  00000+0 -39719-2 0  9995
2 59515  43.0035 243.1497 0002151 286.9742  57.4835 15.82586549  2826
STARLINK-31671          
1 59516U 24073F   24118.91668981 -.00791152  00000+0 -39956-2 0  9996
2 59516  43.0034 243.1438 0002131 282.6190  64.0220 15.82610714  2823
STARLINK-31674          
1 59517U 24073G   24118.91668981 -.00810638  00000+0 -40946-2 0  9999
2 59517  43.0035 243.1317 0002134 281.1009  70.4155 15.82655497  2822
STARLINK-31672          
1 59518U 24073H   24118.91668981 -.00798089  00000+0 -40307-2 0  9996
2 59518  43.0035 243.1373 0002185 274.1328  75.1890 15.82626852  2828
STARLINK-31679          
1 59519U 24073J   24118.91668981 -.00818622  00000+0 -41308-2 0  9995
2 59519  43.0035 243.1201 0001959 285.5885  70.4480 15.82697862  2823
STARLINK-31370          
1 59520U 24073K   24118.91668981 -.00964620  00000+0 -46551-2 0  9992
2 59520  43.0030 243.0442 0002169 281.6642 104.6619 15.83986776  2716
